GLOBALSTAR M001 [-]     
1 25162U 98008A   24100.89189934 -.00000050  00000+0  35825-3 0  9990
2 25162  52.0016 154.3343 0001584  69.0585 102.8136 12.38181461190035
GLOBALSTAR M004 [-]     
1 25163U 98008B   24100.94158654 -.00000065  00000+0  21361-3 0  9998
2 25163  51.9994 295.8429 0003640  58.3769  87.4828 12.63354556206922
GLOBALSTAR M002 [-]     
1 25164U 98008C   24100.86482469 -.00000094  00000+0 -33794-3 0  9990
2 25164  52.0003 246.6796 0001947  88.1556 271.9487 11.61500723133780
GLOBALSTAR M003 [-]     
1 25165U 98008D   24100.82648071  .00000008  00000+0  10432-2 0  9996
2 25165  51.9840 288.7817 0008505 138.3098 235.5333 12.11991773180676
GLOBALSTAR M006 [-]     
1 25307U 98023B   24100.60386979 -.00000034  00000+0  85205-3 0  9994
2 25307  51.9922 215.9413 0003821  58.1544 315.4782 11.58159931166593
GLOBALSTAR M015 [-]     
1 25308U 98023C   24100.83605056 -.00000118  00000+0 -10203-2 0  9999
2 25308  51.9821 293.9750 0012748  29.4770 343.7991 11.48850252144272
GLOBALSTAR M008 [-]     
1 25309U 98023D   24100.96785687 -.00000055  00000+0  32410-3 0  9997
2 25309  51.9999  14.0352 0002642 356.4610  86.2765 12.36040314184277
